[{"OBJECT_NAME":"STARLINK-3107","OBJECT_ID":"2021-082AT","EPOCH":"2026-03-09T21:59:27.140640","MEAN_MOTION":15.10504087,"ECCENTRICITY":0.00073375,"INCLINATION":69.9932,"RA_OF_ASC_NODE":287.3824,"ARG_OF_PERICENTER":250.2407,"MEAN_ANOMALY":109.7967,"EPHEMERIS_TYPE":0,"CLASSIFICATION_TYPE":"U","NORAD_CAT_ID":49171,"ELEMENT_SET_NO":999,"REV_AT_EPOCH":24733,"BSTAR":0.001517345,"MEAN_MOTION_DOT":0.00025048,"MEAN_MOTION_DDOT":0},{"OBJECT_NAME":"STARLINK-3940","OBJECT_ID":"2022-051H","EPOCH":"2026-03-09T13:19:58.783872","MEAN_MOTION":15.08839724,"ECCENTRICITY":0.0001231,"INCLINATION":53.2172,"RA_OF_ASC_NODE":129.7624,"ARG_OF_PERICENTER":89.5983,"MEAN_ANOMALY":270.515,"EPHEMERIS_TYPE":0,"CLASSIFICATION_TYPE":"U","NORAD_CAT_ID":52540,"ELEMENT_SET_NO":999,"REV_AT_EPOCH":21142,"BSTAR":1.2571e-5,"MEAN_MOTION_DOT":-8.8e-7,"MEAN_MOTION_DDOT":0}]
